CCSDS_OMM_VERS = 2.0
CREATION_DATE  = 
ORIGINATOR     = 

OBJECT_NAME    = ISS OBJECT XW
OBJECT_ID      = 1998-067XW
CENTER_NAME    = EARTH
REF_FRAME      = TEME
TIME_SYSTEM    = UTC
MEAN_ELEMENT_THEORY = SGP/SGP4

EPOCH          = 2026-02-28T09:29:02.346720
MEAN_MOTION    = 15.65886281
ECCENTRICITY   = .00046956
INCLINATION    = 51.6250
RA_OF_ASC_NODE = 112.8301
ARG_OF_PERICENTER = 36.0713
MEAN_ANOMALY   = 324.0599

EPHEMERIS_TYPE = 0
CLASSIFICATION_TYPE = U
NORAD_CAT_ID   = 66910
ELEMENT_SET_NO = 999
REV_AT_EPOCH   = 1372
BSTAR          = .10237568E-2
MEAN_MOTION_DOT = .107154E-2
MEAN_MOTION_DDOT = 0

CCSDS_OMM_VERS = 2.0
CREATION_DATE  = 
ORIGINATOR     = 

OBJECT_NAME    = ISS OBJECT XX
OBJECT_ID      = 1998-067XX
CENTER_NAME    = EARTH
REF_FRAME      = TEME
TIME_SYSTEM    = UTC
MEAN_ELEMENT_THEORY = SGP/SGP4

EPOCH          = 2026-02-28T04:14:04.585344
MEAN_MOTION    = 15.70701974
ECCENTRICITY   = .00067241
INCLINATION    = 51.6224
RA_OF_ASC_NODE = 112.8607
ARG_OF_PERICENTER = 29.6509
MEAN_ANOMALY   = 330.4869

EPHEMERIS_TYPE = 0
CLASSIFICATION_TYPE = U
NORAD_CAT_ID   = 66911
ELEMENT_SET_NO = 999
REV_AT_EPOCH   = 1369
BSTAR          = .14258097E-2
MEAN_MOTION_DOT = .18393E-2
MEAN_MOTION_DDOT = 0

CCSDS_OMM_VERS = 2.0
CREATION_DATE  = 
ORIGINATOR     = 

OBJECT_NAME    = ISS OBJECT XY
OBJECT_ID      = 1998-067XY
CENTER_NAME    = EARTH
REF_FRAME      = TEME
TIME_SYSTEM    = UTC
MEAN_ELEMENT_THEORY = SGP/SGP4

EPOCH          = 2026-02-28T10:29:17.107584
MEAN_MOTION    = 15.61844218
ECCENTRICITY   = .00025977
INCLINATION    = 51.6274
RA_OF_ASC_NODE = 113.8728
ARG_OF_PERICENTER = 40.6727
MEAN_ANOMALY   = 319.4460

EPHEMERIS_TYPE = 0
CLASSIFICATION_TYPE = U
NORAD_CAT_ID   = 66912
ELEMENT_SET_NO = 999
REV_AT_EPOCH   = 1370
BSTAR          = .84274979E-3
MEAN_MOTION_DOT = .74749E-3
MEAN_MOTION_DDOT = 0

CCSDS_OMM_VERS = 2.0
CREATION_DATE  = 
ORIGINATOR     = 

OBJECT_NAME    = ISS OBJECT XZ
OBJECT_ID      = 1998-067XZ
CENTER_NAME    = EARTH
REF_FRAME      = TEME
TIME_SYSTEM    = UTC
MEAN_ELEMENT_THEORY = SGP/SGP4

EPOCH          = 2026-02-28T10:50:42.432864
MEAN_MOTION    = 15.50996439
ECCENTRICITY   = .00096061
INCLINATION    = 51.6312
RA_OF_ASC_NODE = 117.7224
ARG_OF_PERICENTER = 155.1214
MEAN_ANOMALY   = 205.0240

EPHEMERIS_TYPE = 0
CLASSIFICATION_TYPE = U
NORAD_CAT_ID   = 67683
ELEMENT_SET_NO = 999
REV_AT_EPOCH   = 335
BSTAR          = .59653938E-3
MEAN_MOTION_DOT = .35022E-3
MEAN_MOTION_DDOT = 0

CCSDS_OMM_VERS = 2.0
CREATION_DATE  = 
ORIGINATOR     = 

OBJECT_NAME    = GXIBA-1
OBJECT_ID      = 1998-067YA
CENTER_NAME    = EARTH
REF_FRAME      = TEME
TIME_SYSTEM    = UTC
MEAN_ELEMENT_THEORY = SGP/SGP4

EPOCH          = 2026-02-28T10:29:21.411168
MEAN_MOTION    = 15.52723154
ECCENTRICITY   = .00110764
INCLINATION    = 51.6306
RA_OF_ASC_NODE = 117.6242
ARG_OF_PERICENTER = 146.1897
MEAN_ANOMALY   = 213.9801

EPHEMERIS_TYPE = 0
CLASSIFICATION_TYPE = U
NORAD_CAT_ID   = 67684
ELEMENT_SET_NO = 999
REV_AT_EPOCH   = 335
BSTAR          = .10101779E-2
MEAN_MOTION_DOT = .63733E-3
MEAN_MOTION_DDOT = 0

CCSDS_OMM_VERS = 2.0
CREATION_DATE  = 
ORIGINATOR     = 

OBJECT_NAME    = CORAL
OBJECT_ID      = 1998-067YB
CENTER_NAME    = EARTH
REF_FRAME      = TEME
TIME_SYSTEM    = UTC
MEAN_ELEMENT_THEORY = SGP/SGP4

EPOCH          = 2026-02-28T09:14:14.098560
MEAN_MOTION    = 15.51261455
ECCENTRICITY   = .00116358
INCLINATION    = 51.6317
RA_OF_ASC_NODE = 118.0258
ARG_OF_PERICENTER = 150.9862
MEAN_ANOMALY   = 209.1777

EPHEMERIS_TYPE = 0
CLASSIFICATION_TYPE = U
NORAD_CAT_ID   = 67685
ELEMENT_SET_NO = 999
REV_AT_EPOCH   = 334
BSTAR          = .66081584E-3
MEAN_MOTION_DOT = .39273E-3
MEAN_MOTION_DDOT = 0

CCSDS_OMM_VERS = 2.0
CREATION_DATE  = 
ORIGINATOR     = 

OBJECT_NAME    = ISS OBJECT YC
OBJECT_ID      = 1998-067YC
CENTER_NAME    = EARTH
REF_FRAME      = TEME
TIME_SYSTEM    = UTC
MEAN_ELEMENT_THEORY = SGP/SGP4

EPOCH          = 2026-02-28T12:15:34.257024
MEAN_MOTION    = 15.51632300
ECCENTRICITY   = .00076797
INCLINATION    = 51.6314
RA_OF_ASC_NODE = 117.3675
ARG_OF_PERICENTER = 120.0712
MEAN_ANOMALY   = 240.1040

EPHEMERIS_TYPE = 0
CLASSIFICATION_TYPE = U
NORAD_CAT_ID   = 67686
ELEMENT_SET_NO = 999
REV_AT_EPOCH   = 336
BSTAR          = .77976616E-3
MEAN_MOTION_DOT = .47026E-3
MEAN_MOTION_DDOT = 0

CCSDS_OMM_VERS = 2.0
CREATION_DATE  = 
ORIGINATOR     = 

OBJECT_NAME    = LEOPARD
OBJECT_ID      = 1998-067YD
CENTER_NAME    = EARTH
REF_FRAME      = TEME
TIME_SYSTEM    = UTC
MEAN_ELEMENT_THEORY = SGP/SGP4

EPOCH          = 2026-02-28T10:48:38.406528
MEAN_MOTION    = 15.51125040
ECCENTRICITY   = .000768
INCLINATION    = 51.6314
RA_OF_ASC_NODE = 117.7139
ARG_OF_PERICENTER = 123.4164
MEAN_ANOMALY   = 236.7560

EPHEMERIS_TYPE = 0
CLASSIFICATION_TYPE = U
NORAD_CAT_ID   = 67687
ELEMENT_SET_NO = 999
REV_AT_EPOCH   = 327
BSTAR          = .62541201E-3
MEAN_MOTION_DOT = .36895E-3
MEAN_MOTION_DDOT = 0

CCSDS_OMM_VERS = 2.0
CREATION_DATE  = 
ORIGINATOR     = 

OBJECT_NAME    = ISS OBJECT YE
OBJECT_ID      = 1998-067YE
CENTER_NAME    = EARTH
REF_FRAME      = TEME
TIME_SYSTEM    = UTC
MEAN_ELEMENT_THEORY = SGP/SGP4

EPOCH          = 2026-02-28T10:44:38.850432
MEAN_MOTION    = 15.51456739
ECCENTRICITY   = .00076189
INCLINATION    = 51.6321
RA_OF_ASC_NODE = 117.6961
ARG_OF_PERICENTER = 120.4932
MEAN_ANOMALY   = 239.6810

EPHEMERIS_TYPE = 0
CLASSIFICATION_TYPE = U
NORAD_CAT_ID   = 67688
ELEMENT_SET_NO = 999
REV_AT_EPOCH   = 327
BSTAR          = .71844388E-3
MEAN_MOTION_DOT = .42995E-3
MEAN_MOTION_DDOT = 0

CCSDS_OMM_VERS = 2.0
CREATION_DATE  = 
ORIGINATOR     = 

OBJECT_NAME    = CREW DRAGON 12
OBJECT_ID      = 2026-031A
CENTER_NAME    = EARTH
REF_FRAME      = TEME
TIME_SYSTEM    = UTC
MEAN_ELEMENT_THEORY = SGP/SGP4

EPOCH          = 2026-02-28T20:45:57.648384
MEAN_MOTION    = 15.48367881
ECCENTRICITY   = .00082969
INCLINATION    = 51.6324
RA_OF_ASC_NODE = 115.9816
ARG_OF_PERICENTER = 143.6602
MEAN_ANOMALY   = 216.4951

EPHEMERIS_TYPE = 0
CLASSIFICATION_TYPE = U
NORAD_CAT_ID   = 67796
ELEMENT_SET_NO = 999
REV_AT_EPOCH   = 55470
BSTAR          = .18357562E-3
MEAN_MOTION_DOT = .9465E-4
MEAN_MOTION_DDOT = 0

